[{"OBJECT_NAME":"GAOFEN-9 05","OBJECT_ID":"2020-058A","EPOCH":"2026-03-10T00:01:50.876256","MEAN_MOTION":15.30293976,"ECCENTRICITY":0.0010522,"INCLINATION":97.2228,"RA_OF_ASC_NODE":111.963,"ARG_OF_PERICENTER":91.0204,"MEAN_ANOMALY":269.2242,"EPHEMERIS_TYPE":0,"CLASSIFICATION_TYPE":"U","NORAD_CAT_ID":46232,"ELEMENT_SET_NO":999,"REV_AT_EPOCH":30843,"BSTAR":0.00025120304,"MEAN_MOTION_DOT":7.299e-5,"MEAN_MOTION_DDOT":0},{"OBJECT_NAME":"STARLINK-34367","OBJECT_ID":"2025-130Q","EPOCH":"2026-03-09T11:32:00.986208","MEAN_MOTION":15.30196054,"ECCENTRICITY":0.00012958,"INCLINATION":53.159,"RA_OF_ASC_NODE":89.3241,"ARG_OF_PERICENTER":77.8975,"MEAN_ANOMALY":282.2171,"EPHEMERIS_TYPE":0,"CLASSIFICATION_TYPE":"U","NORAD_CAT_ID":64452,"ELEMENT_SET_NO":999,"REV_AT_EPOCH":4066,"BSTAR":0.00074364522,"MEAN_MOTION_DOT":0.00021727,"MEAN_MOTION_DDOT":0}]
